ORBCOMM FM05 [-]        
1 25117U 97084F   23342.55122407  .00001127  00000+0  38505-3 0  9998
2 25117  45.0136 151.4431 0001923 290.7351  69.3293 14.41830367360163
ORBCOMM FM06 [+]        
1 25118U 97084G   23342.51545153  .00001090  00000+0  37419-3 0  9994
2 25118  45.0131 151.7876 0001115 295.9349  93.1150 14.41795152361094
ORBCOMM FM07 [-]        
1 25119U 97084H   23342.56300407  .00001262  00000+0  42656-3 0  9991
2 25119  45.0122 152.0219 0002685 279.2564  80.7982 14.41738642361071
ORBCOMM FM03 [-]        
1 25158U 98007B   23342.19225318  .00001114  00000+0  46182-3 0  9990
2 25158 107.9753  73.9294 0046651 143.7788 216.6524 14.31570430344251
ORBCOMM FM04 [+]        
1 25159U 98007C   23342.20858059  .00001115  00000+0  46092-3 0  9998
2 25159 107.9735  76.7959 0042144 141.9399 218.4729 14.31832707344426
ORBCOMM FM17 [-]        
1 25413U 98046A   23342.05331268  .00000743  00000+0  32243-3 0  9994
2 25413  44.9967   1.4849 0004053 286.9695  73.0706 14.32594625323214
ORBCOMM FM18 [-]        
1 25414U 98046B   23341.91713106  .00001317  00000+0  50551-3 0  9994
2 25414  44.9945 292.3873 0005551 344.4450  15.6226 14.35181359324109
ORBCOMM FM19 [+]        
1 25415U 98046C   23342.31418976  .00001038  00000+0  40999-3 0  9992
2 25415  44.9952 291.7258 0004567 337.8120 179.2427 14.35038495324128
